{
  "type": "FeatureCollection",
  "features": [
    {
      "type": "Feature",
      "properties": {
        "norad_id": 44794,
        "name": "BEIDOU-3 M21 (C43)",
        "group": "beidou",
        "lat": 52.87606903522951,
        "lon": 18.978657472683665,
        "alt_km": 21517.50989588098,
        "timestamp": "2025-12-26T23:26:42.395091+00:00",
        "meta_object_name": "BEIDOU-3 M21 (C43)",
        "meta_object_id": "2019-078B",
        "meta_epoch": "2025-12-25T05:55:32.884896",
        "meta_mean_motion": 1.86227898,
        "meta_eccentricity": 0.0004304,
        "meta_inclination": 54.0703,
        "meta_ra_of_asc_node": 305.9129,
        "meta_arg_of_pericenter": 12.6939,
        "meta_mean_anomaly": 347.3266,
        "meta_ephemeris_type": 0,
        "meta_classification_type": "U",
        "meta_norad_cat_id": 44794,
        "meta_element_set_no": 999,
        "meta_rev_at_epoch": 4141,
        "meta_bstar": 0,
        "meta_mean_motion_dot": -5.3e-07,
        "meta_mean_motion_ddot": 0,
        "tle_line1": "1 44794U 19078B   25359.24690839 -.00000053  00000+0  00000+0 0  9995",
        "tle_line2": "2 44794  54.0703 305.9129 0004304  12.6939 347.3266  1.86227898 41411"
      },
      "geometry": {
        "type": "Point",
        "coordinates": [
          18.978657472683665,
          52.87606903522951
        ]
      }
    },
    {
      "type": "Feature",
      "properties": {
        "norad_id": 44864,
        "name": "BEIDOU-3 M19 (C41)",
        "group": "beidou",
        "lat": -55.996931999142916,
        "lon": -11.294367766645342,
        "alt_km": 21483.17693691743,
        "timestamp": "2025-12-26T23:26:42.395101+00:00",
        "meta_object_name": "BEIDOU-3 M19 (C41)",
        "meta_object_id": "2019-090A",
        "meta_epoch": "2025-12-26T13:40:26.964192",
        "meta_mean_motion": 1.86231444,
        "meta_eccentricity": 0.001848,
        "meta_inclination": 56.4042,
        "meta_ra_of_asc_node": 68.5033,
        "meta_arg_of_pericenter": 285.3121,
        "meta_mean_anomaly": 77.4787,
        "meta_ephemeris_type": 0,
        "meta_classification_type": "U",
        "meta_norad_cat_id": 44864,
        "meta_element_set_no": 999,
        "meta_rev_at_epoch": 4102,
        "meta_bstar": 0,
        "meta_mean_motion_dot": -3.2e-07,
        "meta_mean_motion_ddot": 0,
        "tle_line1": "1 44864U 19090A   25360.56975653 -.00000032  00000+0  00000+0 0  9991",
        "tle_line2": "2 44864  56.4042  68.5033 0018480 285.3121  77.4787  1.86231444 41027"
      },
      "geometry": {
        "type": "Point",
        "coordinates": [
          -11.294367766645342,
          -55.996931999142916
        ]
      }
    },
    {
      "type": "Feature",
      "properties": {
        "norad_id": 44865,
        "name": "BEIDOU-3 M20 (C42)",
        "group": "beidou",
        "lat": 4.559801803850665,
        "lon": 71.57457276973093,
        "alt_km": 21511.42520144781,
        "timestamp": "2025-12-26T23:26:42.395111+00:00",
        "meta_object_name": "BEIDOU-3 M20 (C42)",
        "meta_object_id": "2019-090B",
        "meta_epoch": "2025-12-26T13:03:31.682016",
        "meta_mean_motion": 1.86231463,
        "meta_eccentricity": 0.0015612,
        "meta_inclination": 56.4057,
        "meta_ra_of_asc_node": 68.5385,
        "meta_arg_of_pericenter": 297.4355,
        "meta_mean_anomaly": 137.7791,
        "meta_ephemeris_type": 0,
        "meta_classification_type": "U",
        "meta_norad_cat_id": 44865,
        "meta_element_set_no": 999,
        "meta_rev_at_epoch": 4100,
        "meta_bstar": 0,
        "meta_mean_motion_dot": -3.2e-07,
        "meta_mean_motion_ddot": 0,
        "tle_line1": "1 44865U 19090B   25360.54411669 -.00000032  00000+0  00000+0 0  9992",
        "tle_line2": "2 44865  56.4057  68.5385 0015612 297.4355 137.7791  1.86231463 41005"
      },
      "geometry": {
        "type": "Point",
        "coordinates": [
          71.57457276973093,
          4.559801803850665
        ]
      }
    },
    {
      "type": "Feature",
      "properties": {
        "norad_id": 45344,
        "name": "BEIDOU-3 G2 (C60)",
        "group": "beidou",
        "lat": 2.116210565091737,
        "lon": 167.4340806894513,
        "alt_km": 35789.51982927706,
        "timestamp": "2025-12-26T23:26:42.395122+00:00",
        "meta_object_name": "BEIDOU-3 G2 (C60)",
        "meta_object_id": "2020-017A",
        "meta_epoch": "2025-12-26T19:18:42.701760",
        "meta_mean_motion": 1.00271889,
        "meta_eccentricity": 0.0002166,
        "meta_inclination": 2.5215,
        "meta_ra_of_asc_node": 44.1536,
        "meta_arg_of_pericenter": 237.3433,
        "meta_mean_anomaly": 183.7714,
        "meta_ephemeris_type": 0,
        "meta_classification_type": "U",
        "meta_norad_cat_id": 45344,
        "meta_element_set_no": 999,
        "meta_rev_at_epoch": 2153,
        "meta_bstar": 0,
        "meta_mean_motion_dot": -1.19e-06,
        "meta_mean_motion_ddot": 0,
        "tle_line1": "1 45344U 20017A   25360.80466090 -.00000119  00000+0  00000+0 0  9999",
        "tle_line2": "2 45344   2.5215  44.1536 0002166 237.3433 183.7714  1.00271889 21538"
      },
      "geometry": {
        "type": "Point",
        "coordinates": [
          167.4340806894513,
          2.116210565091737
        ]
      }
    },
    {
      "type": "Feature",
      "properties": {
        "norad_id": 45807,
        "name": "BEIDOU-3 G3 (C61)",
        "group": "beidou",
        "lat": 1.5212072777541452,
        "lon": -162.10087043072474,
        "alt_km": 35815.02091908489,
        "timestamp": "2025-12-26T23:26:42.395132+00:00",
        "meta_object_name": "BEIDOU-3 G3 (C61)",
        "meta_object_id": "2020-040A",
        "meta_epoch": "2025-12-26T15:16:11.754624",
        "meta_mean_motion": 1.00266662,
        "meta_eccentricity": 0.00065884,
        "meta_inclination": 2.0227,
        "meta_ra_of_asc_node": 66.6979,
        "meta_arg_of_pericenter": 308.5345,
        "meta_mean_anomaly": 59.7005,
        "meta_ephemeris_type": 0,
        "meta_classification_type": "U",
        "meta_norad_cat_id": 45807,
        "meta_element_set_no": 999,
        "meta_rev_at_epoch": 2034,
        "meta_bstar": 0,
        "meta_mean_motion_dot": -3.32e-06,
        "meta_mean_motion_ddot": 0,
        "tle_line1": "1 45807U 20040A   25360.63624716 -.00000332  00000+0  00000+0 0  9998",
        "tle_line2": "2 45807   2.0227  66.6979 0006588 308.5345  59.7005  1.00266662 20341"
      },
      "geometry": {
        "type": "Point",
        "coordinates": [
          -162.10087043072474,
          1.5212072777541452
        ]
      }
    },
    {
      "type": "Feature",
      "properties": {
        "norad_id": 56564,
        "name": "BEIDOU-3 G4 (C62)",
        "group": "beidou",
        "lat": -0.6646168364086567,
        "lon": -112.53919996275623,
        "alt_km": 35783.552602218864,
        "timestamp": "2025-12-26T23:26:42.395142+00:00",
        "meta_object_name": "BEIDOU-3 G4 (C62)",
        "meta_object_id": "2023-066A",
        "meta_epoch": "2025-12-26T15:11:02.876352",
        "meta_mean_motion": 1.00270623,
        "meta_eccentricity": 0.00025142,
        "meta_inclination": 0.7862,
        "meta_ra_of_asc_node": 303.1351,
        "meta_arg_of_pericenter": 230.5978,
        "meta_mean_anomaly": 309.4542,
        "meta_ephemeris_type": 0,
        "meta_classification_type": "U",
        "meta_norad_cat_id": 56564,
        "meta_element_set_no": 999,
        "meta_rev_at_epoch": 966,
        "meta_bstar": 0,
        "meta_mean_motion_dot": -8.9e-07,
        "meta_mean_motion_ddot": 0,
        "tle_line1": "1 56564U 23066A   25360.63267218 -.00000089  00000+0  00000+0 0  9990",
        "tle_line2": "2 56564   0.7862 303.1351 0002514 230.5978 309.4542  1.00270623  9662"
      },
      "geometry": {
        "type": "Point",
        "coordinates": [
          -112.53919996275623,
          -0.6646168364086567
        ]
      }
    },
    {
      "type": "Feature",
      "properties": {
        "norad_id": 58654,
        "name": "BEIDOU-3 M28 (C50)",
        "group": "beidou",
        "lat": 22.36773456932131,
        "lon": 84.49384479113877,
        "alt_km": 21528.48713016843,
        "timestamp": "2025-12-26T23:26:42.395152+00:00",
        "meta_object_name": "BEIDOU-3 M28 (C50)",
        "meta_object_id": "2023-207A",
        "meta_epoch": "2025-12-26T09:34:30.666720",
        "meta_mean_motion": 1.86229622,
        "meta_eccentricity": 0.0002968,
        "meta_inclination": 55.596,
        "meta_ra_of_asc_node": 68.1388,
        "meta_arg_of_pericenter": 276.5456,
        "meta_mean_anomaly": 83.472,
        "meta_ephemeris_type": 0,
        "meta_classification_type": "U",
        "meta_norad_cat_id": 58654,
        "meta_element_set_no": 999,
        "meta_rev_at_epoch": 1362,
        "meta_bstar": 0,
        "meta_mean_motion_dot": -3.3e-07,
        "meta_mean_motion_ddot": 0,
        "tle_line1": "1 58654U 23207A   25360.39896605 -.00000033  00000+0  00000+0 0  9999",
        "tle_line2": "2 58654  55.5960  68.1388 0002968 276.5456  83.4720  1.86229622 13628"
      },
      "geometry": {
        "type": "Point",
        "coordinates": [
          84.49384479113877,
          22.36773456932131
        ]
      }
    }
  ]
}